HULIANWANG DIGUI-33     
1 64286U 25121D   26066.60849720  .00000018  00000+0  86808-5 0  9996
2 64286  86.4973  47.8621 0002069  76.3732 283.7633 13.24425484 36714
HULIANWANG DIGUI-34     
1 64287U 25121E   26066.60099553  .00000037  00000+0  51915-4 0  9999
2 64287  86.4950  47.7961 0002196  72.3022 287.8352 13.24424394 36717
HULIANWANG DIGUI-35     
1 64956U 25159A   26066.64301885  .00000078  00000+0  14650-3 0  9990
2 64956  86.4980 316.7566 0001264  74.6375 285.4898 13.24417396 29685
HULIANWANG DIGUI-36     
1 64957U 25159B   26066.63526697  .00000077  00000+0  14591-3 0  9993
2 64957  86.4999 316.7974 0001342  73.0509 287.0772 13.24419984 29682
HULIANWANG DIGUI-37     
1 64958U 25159C   26066.62772552  .00000065  00000+0  11761-3 0  9999
2 64958  86.4940 316.6606 0001414  69.8830 290.2457 13.24419553 29688
HULIANWANG DIGUI-38     
1 64959U 25159D   26066.62019014  .00000054  00000+0  91582-4 0  9995
2 64959  86.4999 316.7903 0001402  72.5572 287.5715 13.24419730 29688
HULIANWANG DIGUI-39     
1 64960U 25159E   26066.61262240  .00000046  00000+0  72569-4 0  9992
2 64960  86.4975 316.7321 0001410  73.7987 286.3302 13.24419909 29687
HULIANWANG DIGUI-40     
1 65043U 25162A   26066.59893319 -.00000090  00000+0  73654-4 0  9999
2 65043  49.9985 270.3275 0001033  82.1946 277.9043 13.29332445 29837
HULIANWANG DIGUI-41     
1 65044U 25162B   26066.59058021 -.00000071  00000+0  11385-3 0  9994
2 65044  49.9996 270.3016 0001072  81.2131 278.8862 13.29332932 29843
HULIANWANG DIGUI-42     
1 65045U 25162C   26066.58219944 -.00000080  00000+0  93861-4 0  9997
2 65045  49.9961 270.1956 0001015  84.0776 276.0212 13.29332307 29845
HULIANWANG DIGUI-43     
1 65046U 25162D   26066.57382356 -.00000091  00000+0  70964-4 0  9996
2 65046  49.9978 270.1842 0001004  82.6652 277.4335 13.29333245 29846
HULIANWANG DIGUI-44     
1 65047U 25162E   26066.56516602 -.00000095  00000+0  62441-4 0  9994
2 65047  50.0005 270.1876 0000749   0.8772 359.2102 13.29340753 29852
HULIANWANG DIGUI-45     
1 65048U 25162F   26066.63233118 -.00000084  00000+0  85593-4 0  9992
2 65048  50.0035 269.9304 0001057  82.9543 277.1449 13.29333102 29850
HULIANWANG DIGUI-46     
1 65049U 25162G   26066.62397607 -.00000084  00000+0  86124-4 0  9997
2 65049  50.0053 269.9199 0001057  84.6566 275.4427 13.29333017 29859
HULIANWANG DIGUI-47     
1 65050U 25162H   26066.61561952 -.00000078  00000+0  98354-4 0  9995
2 65050  50.0017 269.8138 0001054  85.9340 274.1653 13.29332918 29850
HULIANWANG DIGUI-48     
1 65051U 25162J   26066.60728887 -.00000077  00000+0  10246-3 0  9999
2 65051  50.0028 269.7877 0001030  83.7622 276.3368 13.29332472 29857
