[{"OBJECT_NAME":"HULIANWANG DIGUI-33","OBJECT_ID":"2025-121D","EPOCH":"2026-03-07T14:36:14.158080","MEAN_MOTION":13.24425484,"ECCENTRICITY":0.00020693,"INCLINATION":86.4973,"RA_OF_ASC_NODE":47.8621,"ARG_OF_PERICENTER":76.3732,"MEAN_ANOMALY":283.7633,"EPHEMERIS_TYPE":0,"CLASSIFICATION_TYPE":"U","NORAD_CAT_ID":64286,"ELEMENT_SET_NO":999,"REV_AT_EPOCH":3671,"BSTAR":8.680762e-6,"MEAN_MOTION_DOT":1.8e-7,"MEAN_MOTION_DDOT":0},{"OBJECT_NAME":"HULIANWANG DIGUI-34","OBJECT_ID":"2025-121E","EPOCH":"2026-03-07T14:25:26.013792","MEAN_MOTION":13.24424394,"ECCENTRICITY":0.00021968,"INCLINATION":86.495,"RA_OF_ASC_NODE":47.7961,"ARG_OF_PERICENTER":72.3022,"MEAN_ANOMALY":287.8352,"EPHEMERIS_TYPE":0,"CLASSIFICATION_TYPE":"U","NORAD_CAT_ID":64287,"ELEMENT_SET_NO":999,"REV_AT_EPOCH":3671,"BSTAR":5.1915042e-5,"MEAN_MOTION_DOT":3.7e-7,"MEAN_MOTION_DDOT":0},{"OBJECT_NAME":"HULIANWANG DIGUI-35","OBJECT_ID":"2025-159A","EPOCH":"2026-03-07T15:25:56.828640","MEAN_MOTION":13.24417396,"ECCENTRICITY":0.0001264,"INCLINATION":86.498,"RA_OF_ASC_NODE":316.7566,"ARG_OF_PERICENTER":74.6375,"MEAN_ANOMALY":285.4898,"EPHEMERIS_TYPE":0,"CLASSIFICATION_TYPE":"U","NORAD_CAT_ID":64956,"ELEMENT_SET_NO":999,"REV_AT_EPOCH":2968,"BSTAR":0.00014649742,"MEAN_MOTION_DOT":7.8e-7,"MEAN_MOTION_DDOT":0},{"OBJECT_NAME":"HULIANWANG DIGUI-36","OBJECT_ID":"2025-159B","EPOCH":"2026-03-07T15:14:47.066208","MEAN_MOTION":13.24419984,"ECCENTRICITY":0.0001342,"INCLINATION":86.4999,"RA_OF_ASC_NODE":316.7974,"ARG_OF_PERICENTER":73.0509,"MEAN_ANOMALY":287.0772,"EPHEMERIS_TYPE":0,"CLASSIFICATION_TYPE":"U","NORAD_CAT_ID":64957,"ELEMENT_SET_NO":999,"REV_AT_EPOCH":2968,"BSTAR":0.00014591354,"MEAN_MOTION_DOT":7.7e-7,"MEAN_MOTION_DDOT":0},{"OBJECT_NAME":"HULIANWANG DIGUI-37","OBJECT_ID":"2025-159C","EPOCH":"2026-03-07T15:03:55.484928","MEAN_MOTION":13.24419553,"ECCENTRICITY":0.00014144,"INCLINATION":86.494,"RA_OF_ASC_NODE":316.6606,"ARG_OF_PERICENTER":69.883,"MEAN_ANOMALY":290.2457,"EPHEMERIS_TYPE":0,"CLASSIFICATION_TYPE":"U","NORAD_CAT_ID":64958,"ELEMENT_SET_NO":999,"REV_AT_EPOCH":2968,"BSTAR":0.00011761243,"MEAN_MOTION_DOT":6.5e-7,"MEAN_MOTION_DDOT":0},{"OBJECT_NAME":"HULIANWANG DIGUI-38","OBJECT_ID":"2025-159D","EPOCH":"2026-03-07T14:53:04.428096","MEAN_MOTION":13.2441973,"ECCENTRICITY":0.00014025,"INCLINATION":86.4999,"RA_OF_ASC_NODE":316.7903,"ARG_OF_PERICENTER":72.5572,"MEAN_ANOMALY":287.5715,"EPHEMERIS_TYPE":0,"CLASSIFICATION_TYPE":"U","NORAD_CAT_ID":64959,"ELEMENT_SET_NO":999,"REV_AT_EPOCH":2968,"BSTAR":9.1582166e-5,"MEAN_MOTION_DOT":5.4e-7,"MEAN_MOTION_DDOT":0},{"OBJECT_NAME":"HULIANWANG DIGUI-39","OBJECT_ID":"2025-159E","EPOCH":"2026-03-07T14:42:10.575360","MEAN_MOTION":13.24419909,"ECCENTRICITY":0.00014105,"INCLINATION":86.4975,"RA_OF_ASC_NODE":316.7321,"ARG_OF_PERICENTER":73.7987,"MEAN_ANOMALY":286.3302,"EPHEMERIS_TYPE":0,"CLASSIFICATION_TYPE":"U","NORAD_CAT_ID":64960,"ELEMENT_SET_NO":999,"REV_AT_EPOCH":2968,"BSTAR":7.2569401e-5,"MEAN_MOTION_DOT":4.6e-7,"MEAN_MOTION_DDOT":0},{"OBJECT_NAME":"HULIANWANG DIGUI-40","OBJECT_ID":"2025-162A","EPOCH":"2026-03-07T14:22:27.827616","MEAN_MOTION":13.29332445,"ECCENTRICITY":0.00010331,"INCLINATION":49.9985,"RA_OF_ASC_NODE":270.3275,"ARG_OF_PERICENTER":82.1946,"MEAN_ANOMALY":277.9043,"EPHEMERIS_TYPE":0,"CLASSIFICATION_TYPE":"U","NORAD_CAT_ID":65043,"ELEMENT_SET_NO":999,"REV_AT_EPOCH":2983,"BSTAR":7.3653588e-5,"MEAN_MOTION_DOT":-9.0e-7,"MEAN_MOTION_DDOT":0},{"OBJECT_NAME":"HULIANWANG DIGUI-41","OBJECT_ID":"2025-162B","EPOCH":"2026-03-07T14:10:26.130144","MEAN_MOTION":13.29332932,"ECCENTRICITY":0.00010725,"INCLINATION":49.9996,"RA_OF_ASC_NODE":270.3016,"ARG_OF_PERICENTER":81.2131,"MEAN_ANOMALY":278.8862,"EPHEMERIS_TYPE":0,"CLASSIFICATION_TYPE":"U","NORAD_CAT_ID":65044,"ELEMENT_SET_NO":999,"REV_AT_EPOCH":2984,"BSTAR":0.00011384903,"MEAN_MOTION_DOT":-7.1e-7,"MEAN_MOTION_DDOT":0},{"OBJECT_NAME":"HULIANWANG DIGUI-42","OBJECT_ID":"2025-162C","EPOCH":"2026-03-07T13:58:22.031616","MEAN_MOTION":13.29332307,"ECCENTRICITY":0.00010152,"INCLINATION":49.9961,"RA_OF_ASC_NODE":270.1956,"ARG_OF_PERICENTER":84.0776,"MEAN_ANOMALY":276.0212,"EPHEMERIS_TYPE":0,"CLASSIFICATION_TYPE":"U","NORAD_CAT_ID":65045,"ELEMENT_SET_NO":999,"REV_AT_EPOCH":2984,"BSTAR":9.3860908e-5,"MEAN_MOTION_DOT":-8.0e-7,"MEAN_MOTION_DDOT":0},{"OBJECT_NAME":"HULIANWANG DIGUI-43","OBJECT_ID":"2025-162D","EPOCH":"2026-03-07T13:46:18.355584","MEAN_MOTION":13.29333245,"ECCENTRICITY":0.00010043,"INCLINATION":49.9978,"RA_OF_ASC_NODE":270.1842,"ARG_OF_PERICENTER":82.6652,"MEAN_ANOMALY":277.4335,"EPHEMERIS_TYPE":0,"CLASSIFICATION_TYPE":"U","NORAD_CAT_ID":65046,"ELEMENT_SET_NO":999,"REV_AT_EPOCH":2984,"BSTAR":7.0964318e-5,"MEAN_MOTION_DOT":-9.1e-7,"MEAN_MOTION_DDOT":0},{"OBJECT_NAME":"HULIANWANG DIGUI-44","OBJECT_ID":"2025-162E","EPOCH":"2026-03-07T13:33:50.344128","MEAN_MOTION":13.29340753,"ECCENTRICITY":7.494e-5,"INCLINATION":50.0005,"RA_OF_ASC_NODE":270.1876,"ARG_OF_PERICENTER":0.8772,"MEAN_ANOMALY":359.2102,"EPHEMERIS_TYPE":0,"CLASSIFICATION_TYPE":"U","NORAD_CAT_ID":65047,"ELEMENT_SET_NO":999,"REV_AT_EPOCH":2985,"BSTAR":6.2440915e-5,"MEAN_MOTION_DOT":-9.5e-7,"MEAN_MOTION_DDOT":0},{"OBJECT_NAME":"HULIANWANG DIGUI-45","OBJECT_ID":"2025-162F","EPOCH":"2026-03-07T15:10:33.413952","MEAN_MOTION":13.29333102,"ECCENTRICITY":0.00010572,"INCLINATION":50.0035,"RA_OF_ASC_NODE":269.9304,"ARG_OF_PERICENTER":82.9543,"MEAN_ANOMALY":277.1449,"EPHEMERIS_TYPE":0,"CLASSIFICATION_TYPE":"U","NORAD_CAT_ID":65048,"ELEMENT_SET_NO":999,"REV_AT_EPOCH":2985,"BSTAR":8.5593078e-5,"MEAN_MOTION_DOT":-8.4e-7,"MEAN_MOTION_DDOT":0},{"OBJECT_NAME":"HULIANWANG DIGUI-46","OBJECT_ID":"2025-162G","EPOCH":"2026-03-07T14:58:31.532448","MEAN_MOTION":13.29333017,"ECCENTRICITY":0.00010574,"INCLINATION":50.0053,"RA_OF_ASC_NODE":269.9199,"ARG_OF_PERICENTER":84.6566,"MEAN_ANOMALY":275.4427,"EPHEMERIS_TYPE":0,"CLASSIFICATION_TYPE":"U","NORAD_CAT_ID":65049,"ELEMENT_SET_NO":999,"REV_AT_EPOCH":2985,"BSTAR":8.6124414e-5,"MEAN_MOTION_DOT":-8.4e-7,"MEAN_MOTION_DDOT":0},{"OBJECT_NAME":"HULIANWANG DIGUI-47","OBJECT_ID":"2025-162H","EPOCH":"2026-03-07T14:46:29.526528","MEAN_MOTION":13.29332918,"ECCENTRICITY":0.00010547,"INCLINATION":50.0017,"RA_OF_ASC_NODE":269.8138,"ARG_OF_PERICENTER":85.934,"MEAN_ANOMALY":274.1653,"EPHEMERIS_TYPE":0,"CLASSIFICATION_TYPE":"U","NORAD_CAT_ID":65050,"ELEMENT_SET_NO":999,"REV_AT_EPOCH":2985,"BSTAR":9.835373e-5,"MEAN_MOTION_DOT":-7.8e-7,"MEAN_MOTION_DDOT":0},{"OBJECT_NAME":"HULIANWANG DIGUI-48","OBJECT_ID":"2025-162J","EPOCH":"2026-03-07T14:34:29.758368","MEAN_MOTION":13.29332472,"ECCENTRICITY":0.00010306,"INCLINATION":50.0028,"RA_OF_ASC_NODE":269.7877,"ARG_OF_PERICENTER":83.7622,"MEAN_ANOMALY":276.3368,"EPHEMERIS_TYPE":0,"CLASSIFICATION_TYPE":"U","NORAD_CAT_ID":65051,"ELEMENT_SET_NO":999,"REV_AT_EPOCH":2985,"BSTAR":0.00010246179,"MEAN_MOTION_DOT":-7.7e-7,"MEAN_MOTION_DDOT":0}]
